[
  {
    "OBJECT_NAME": "STARLINK-33958",
    "OBJECT_ID": "25093Q",
    "EPOCH": "2025-11-11T05:49:34.087296",
    "MEAN_MOTION": 15.27608748,
    "ECCENTRICITY": 5.63e-05,
    "INCLINATION": 42.9962,
    "RA_OF_ASC_NODE": 27.1441,
    "ARG_OF_PERICENTER": 238.4572,
    "MEAN_ANOMALY": 121.6224,
    "EPHEMERIS_TYPE": 0,
    "CLASSIFICATION_TYPE": "U",
    "NORAD_CAT_ID": 63850,
    "ELEMENT_SET_NO": 999,
    "REV_AT_EPOCH": 2969,
    "BSTAR": 0.0014523,
    "MEAN_MOTION_DOT": 0.00039955,
    "MEAN_MOTION_DDOT": 0.0,
    "TLE_LINE1": "1 63850U 25093Q   25315.24275564  .00039955  00000+0  14523-2 0  9999",
    "TLE_LINE2": "2 63850  42.9962  27.1441 0000563 238.4572 121.6224 15.27608748 29692",
    "COMMENT": "Grouped by shell and plane from TLE"
  },
  {
    "OBJECT_NAME": "STARLINK-33776",
    "OBJECT_ID": "25093R",
    "EPOCH": "2025-11-11T04:54:03.348288",
    "MEAN_MOTION": 15.27621887,
    "ECCENTRICITY": 0.0001137,
    "INCLINATION": 42.9974,
    "RA_OF_ASC_NODE": 26.8462,
    "ARG_OF_PERICENTER": 253.4833,
    "MEAN_ANOMALY": 106.5893,
    "EPHEMERIS_TYPE": 0,
    "CLASSIFICATION_TYPE": "U",
    "NORAD_CAT_ID": 63851,
    "ELEMENT_SET_NO": 999,
    "REV_AT_EPOCH": 2984,
    "BSTAR": 0.0020930000000000002,
    "MEAN_MOTION_DOT": 0.00057861,
    "MEAN_MOTION_DDOT": 0.0,
    "TLE_LINE1": "1 63851U 25093R   25315.20420542  .00057861  00000+0  20930-2 0  9999",
    "TLE_LINE2": "2 63851  42.9974  26.8462 0001137 253.4833 106.5893 15.27621887 29840",
    "COMMENT": "Grouped by shell and plane from TLE"
  },
  {
    "OBJECT_NAME": "STARLINK-34032",
    "OBJECT_ID": "25093T",
    "EPOCH": "2025-11-11T04:57:45.255456",
    "MEAN_MOTION": 15.27628391,
    "ECCENTRICITY": 0.0002705,
    "INCLINATION": 43.0007,
    "RA_OF_ASC_NODE": 26.8535,
    "ARG_OF_PERICENTER": 285.6414,
    "MEAN_ANOMALY": 74.4139,
    "EPHEMERIS_TYPE": 0,
    "CLASSIFICATION_TYPE": "U",
    "NORAD_CAT_ID": 63853,
    "ELEMENT_SET_NO": 999,
    "REV_AT_EPOCH": 2985,
    "BSTAR": 0.0021582000000000003,
    "MEAN_MOTION_DOT": 0.000597,
    "MEAN_MOTION_DDOT": 0.0,
    "TLE_LINE1": "1 63853U 25093T   25315.20677379  .00059700  00000+0  21582-2 0  9991",
    "TLE_LINE2": "2 63853  43.0007  26.8535 0002705 285.6414  74.4139 15.27628391 29850",
    "COMMENT": "Grouped by shell and plane from TLE"
  },
  {
    "OBJECT_NAME": "STARLINK-34015",
    "OBJECT_ID": "25093U",
    "EPOCH": "2025-11-11T05:53:15.724032",
    "MEAN_MOTION": 15.27619512,
    "ECCENTRICITY": 0.0003258,
    "INCLINATION": 43.0024,
    "RA_OF_ASC_NODE": 27.1398,
    "ARG_OF_PERICENTER": 288.8641,
    "MEAN_ANOMALY": 71.1858,
    "EPHEMERIS_TYPE": 0,
    "CLASSIFICATION_TYPE": "U",
    "NORAD_CAT_ID": 63854,
    "ELEMENT_SET_NO": 999,
    "REV_AT_EPOCH": 2969,
    "BSTAR": 0.0020461,
    "MEAN_MOTION_DOT": 0.00056549,
    "MEAN_MOTION_DDOT": 0.0,
    "TLE_LINE1": "1 63854U 25093U   25315.24532088  .00056549  00000+0  20461-2 0  9996",
    "TLE_LINE2": "2 63854  43.0024  27.1398 0003258 288.8641  71.1858 15.27619512 29691",
    "COMMENT": "Grouped by shell and plane from TLE"
  },
  {
    "OBJECT_NAME": "STARLINK-33969",
    "OBJECT_ID": "25093V",
    "EPOCH": "2025-11-11T05:08:50.656416",
    "MEAN_MOTION": 15.27602304,
    "ECCENTRICITY": 3.65e-05,
    "INCLINATION": 42.9971,
    "RA_OF_ASC_NODE": 26.9072,
    "ARG_OF_PERICENTER": 306.2779,
    "MEAN_ANOMALY": 53.8039,
    "EPHEMERIS_TYPE": 0,
    "CLASSIFICATION_TYPE": "U",
    "NORAD_CAT_ID": 63855,
    "ELEMENT_SET_NO": 999,
    "REV_AT_EPOCH": 2963,
    "BSTAR": 0.0017884,
    "MEAN_MOTION_DOT": 0.00049315,
    "MEAN_MOTION_DDOT": 0.0,
    "TLE_LINE1": "1 63855U 25093V   25315.21447519  .00049315  00000+0  17884-2 0  9996",
    "TLE_LINE2": "2 63855  42.9971  26.9072 0000365 306.2779  53.8039 15.27602304 29633",
    "COMMENT": "Grouped by shell and plane from TLE"
  },
  {
    "OBJECT_NAME": "STARLINK-34002",
    "OBJECT_ID": "25093W",
    "EPOCH": "2025-11-11T06:55:57.931680",
    "MEAN_MOTION": 15.27600821,
    "ECCENTRICITY": 8.01e-05,
    "INCLINATION": 43.0005,
    "RA_OF_ASC_NODE": 26.6064,
    "ARG_OF_PERICENTER": 252.904,
    "MEAN_ANOMALY": 107.1724,
    "EPHEMERIS_TYPE": 0,
    "CLASSIFICATION_TYPE": "U",
    "NORAD_CAT_ID": 63856,
    "ELEMENT_SET_NO": 999,
    "REV_AT_EPOCH": 2964,
    "BSTAR": 0.0012763,
    "MEAN_MOTION_DOT": 0.00035049,
    "MEAN_MOTION_DDOT": 0.0,
    "TLE_LINE1": "1 63856U 25093W   25315.28886495  .00035049  00000+0  12763-2 0  9994",
    "TLE_LINE2": "2 63856  43.0005  26.6064 0000801 252.9040 107.1724 15.27600821 29642",
    "COMMENT": "Grouped by shell and plane from TLE"
  },
  {
    "OBJECT_NAME": "STARLINK-33999",
    "OBJECT_ID": "25093X",
    "EPOCH": "2025-11-11T05:01:26.440320",
    "MEAN_MOTION": 15.27628079,
    "ECCENTRICITY": 0.0002638,
    "INCLINATION": 43.0029,
    "RA_OF_ASC_NODE": 26.8505,
    "ARG_OF_PERICENTER": 267.8095,
    "MEAN_ANOMALY": 92.2454,
    "EPHEMERIS_TYPE": 0,
    "CLASSIFICATION_TYPE": "U",
    "NORAD_CAT_ID": 63857,
    "ELEMENT_SET_NO": 999,
    "REV_AT_EPOCH": 2985,
    "BSTAR": 0.0014734,
    "MEAN_MOTION_DOT": 0.00040568,
    "MEAN_MOTION_DDOT": 0.0,
    "TLE_LINE1": "1 63857U 25093X   25315.20933380  .00040568  00000+0  14734-2 0  9995",
    "TLE_LINE2": "2 63857  43.0029  26.8505 0002638 267.8095  92.2454 15.27628079 29858",
    "COMMENT": "Grouped by shell and plane from TLE"
  },
  {
    "OBJECT_NAME": "STARLINK-33976",
    "OBJECT_ID": "25093Y",
    "EPOCH": "2025-11-11T05:14:24.356544",
    "MEAN_MOTION": 15.27594536,
    "ECCENTRICITY": 0.0001028,
    "INCLINATION": 43.0015,
    "RA_OF_ASC_NODE": 26.9216,
    "ARG_OF_PERICENTER": 250.504,
    "MEAN_ANOMALY": 109.57,
    "EPHEMERIS_TYPE": 0,
    "CLASSIFICATION_TYPE": "U",
    "NORAD_CAT_ID": 63858,
    "ELEMENT_SET_NO": 999,
    "REV_AT_EPOCH": 2969,
    "BSTAR": 0.0015257,
    "MEAN_MOTION_DOT": 0.0004198,
    "MEAN_MOTION_DDOT": 0.0,
    "TLE_LINE1": "1 63858U 25093Y   25315.21833746  .00041980  00000+0  15257-2 0  9992",
    "TLE_LINE2": "2 63858  43.0015  26.9216 0001028 250.5040 109.5700 15.27594536 29693",
    "COMMENT": "Grouped by shell and plane from TLE"
  },
  {
    "OBJECT_NAME": "STARLINK-33821",
    "OBJECT_ID": "25093Z",
    "EPOCH": "2025-11-11T05:34:45.131520",
    "MEAN_MOTION": 15.27605286,
    "ECCENTRICITY": 7.41e-05,
    "INCLINATION": 42.9994,
    "RA_OF_ASC_NODE": 27.0157,
    "ARG_OF_PERICENTER": 240.0609,
    "MEAN_ANOMALY": 120.0169,
    "EPHEMERIS_TYPE": 0,
    "CLASSIFICATION_TYPE": "U",
    "NORAD_CAT_ID": 63859,
    "ELEMENT_SET_NO": 999,
    "REV_AT_EPOCH": 2983,
    "BSTAR": 0.0018156000000000001,
    "MEAN_MOTION_DOT": 0.00050077,
    "MEAN_MOTION_DDOT": 0.0,
    "TLE_LINE1": "1 63859U 25093Z   25315.23246680  .00050077  00000+0  18156-2 0  9998",
    "TLE_LINE2": "2 63859  42.9994  27.0157 0000741 240.0609 120.0169 15.27605286 29838",
    "COMMENT": "Grouped by shell and plane from TLE"
  },
  {
    "OBJECT_NAME": "STARLINK-33888",
    "OBJECT_ID": "25093AA",
    "EPOCH": "2025-11-11T05:23:39.569856",
    "MEAN_MOTION": 15.27608924,
    "ECCENTRICITY": 1.96e-05,
    "INCLINATION": 42.9973,
    "RA_OF_ASC_NODE": 26.9819,
    "ARG_OF_PERICENTER": 209.3753,
    "MEAN_ANOMALY": 150.7087,
    "EPHEMERIS_TYPE": 0,
    "CLASSIFICATION_TYPE": "U",
    "NORAD_CAT_ID": 63860,
    "ELEMENT_SET_NO": 999,
    "REV_AT_EPOCH": 2985,
    "BSTAR": 0.0018335,
    "MEAN_MOTION_DOT": 0.00050583,
    "MEAN_MOTION_DDOT": 0.0,
    "TLE_LINE1": "1 63860U 25093AA  25315.22476354  .00050583  00000+0  18335-2 0  9993",
    "TLE_LINE2": "2 63860  42.9973  26.9819 0000196 209.3753 150.7087 15.27608924 29855",
    "COMMENT": "Grouped by shell and plane from TLE"
  },
  {
    "OBJECT_NAME": "STARLINK-33896",
    "OBJECT_ID": "25093AB",
    "EPOCH": "2025-11-11T05:31:04.155744",
    "MEAN_MOTION": 15.27599772,
    "ECCENTRICITY": 0.0001152,
    "INCLINATION": 42.9953,
    "RA_OF_ASC_NODE": 27.0226,
    "ARG_OF_PERICENTER": 266.5102,
    "MEAN_ANOMALY": 93.5618,
    "EPHEMERIS_TYPE": 0,
    "CLASSIFICATION_TYPE": "U",
    "NORAD_CAT_ID": 63861,
    "ELEMENT_SET_NO": 999,
    "REV_AT_EPOCH": 2963,
    "BSTAR": 0.0020696,
    "MEAN_MOTION_DOT": 0.00057165,
    "MEAN_MOTION_DDOT": 0.0,
    "TLE_LINE1": "1 63861U 25093AB  25315.22990921  .00057165  00000+0  20696-2 0  9991",
    "TLE_LINE2": "2 63861  42.9953  27.0226 0001152 266.5102  93.5618 15.27599772 29634",
    "COMMENT": "Grouped by shell and plane from TLE"
  },
  {
    "OBJECT_NAME": "STARLINK-33878",
    "OBJECT_ID": "25093AC",
    "EPOCH": "2025-11-11T05:32:54.268224",
    "MEAN_MOTION": 15.27621006,
    "ECCENTRICITY": 0.0002787,
    "INCLINATION": 42.9992,
    "RA_OF_ASC_NODE": 27.0031,
    "ARG_OF_PERICENTER": 293.4388,
    "MEAN_ANOMALY": 66.6171,
    "EPHEMERIS_TYPE": 0,
    "CLASSIFICATION_TYPE": "U",
    "NORAD_CAT_ID": 63862,
    "ELEMENT_SET_NO": 999,
    "REV_AT_EPOCH": 2984,
    "BSTAR": 0.0016804,
    "MEAN_MOTION_DOT": 0.00046332,
    "MEAN_MOTION_DDOT": 0.0,
    "TLE_LINE1": "1 63862U 25093AC  25315.23118366  .00046332  00000+0  16804-2 0  9998",
    "TLE_LINE2": "2 63862  42.9992  27.0031 0002787 293.4388  66.6171 15.27621006 29846",
    "COMMENT": "Grouped by shell and plane from TLE"
  },
  {
    "OBJECT_NAME": "STARLINK-33954",
    "OBJECT_ID": "25093AD",
    "EPOCH": "2025-11-11T05:44:01.557024",
    "MEAN_MOTION": 15.2761789,
    "ECCENTRICITY": 0.0002228,
    "INCLINATION": 43.0014,
    "RA_OF_ASC_NODE": 27.0907,
    "ARG_OF_PERICENTER": 279.8846,
    "MEAN_ANOMALY": 80.1755,
    "EPHEMERIS_TYPE": 0,
    "CLASSIFICATION_TYPE": "U",
    "NORAD_CAT_ID": 63863,
    "ELEMENT_SET_NO": 999,
    "REV_AT_EPOCH": 2963,
    "BSTAR": 0.0017376,
    "MEAN_MOTION_DOT": 0.00047922,
    "MEAN_MOTION_DDOT": 0.0,
    "TLE_LINE1": "1 63863U 25093AD  25315.23890691  .00047922  00000+0  17376-2 0  9998",
    "TLE_LINE2": "2 63863  43.0014  27.0907 0002228 279.8846  80.1755 15.27617890 29635",
    "COMMENT": "Grouped by shell and plane from TLE"
  }
]